{"type": "FeatureCollection", "features": [{"type": "Feature", "properties": {"norad_id": 26766, "name": "INTELSAT 10 (IS-10)", "group": "intelsat", "lat": 5.254357534198189, "lon": 98.48949189478955, "alt_km": 36156.2162499744, "timestamp": "2025-12-03T13:52:09.232921+00:00", "meta": {"OBJECT_NAME": "INTELSAT 10 (IS-10)", "OBJECT_ID": "2001-019A", "EPOCH": "2025-12-02T11:35:38.856768", "MEAN_MOTION": 0.99077787, "ECCENTRICITY": 0.00076986, "INCLINATION": 8.6036, "RA_OF_ASC_NODE": 61.2568, "ARG_OF_PERICENTER": 218.3784, "MEAN_ANOMALY": 148.6829, "EPHEMERIS_TYPE": 0, "CLASSIFICATION_TYPE": "U", "NORAD_CAT_ID": 26766, "ELEMENT_SET_NO": 999, "REV_AT_EPOCH": 4363, "BSTAR": 0, "MEAN_MOTION_DOT": -1.25e-06, "MEAN_MOTION_DDOT": 0}, "tle": {"line1": "1 26766U 01019A   25336.48308862 -.00000125  00000+0  00000+0 0  9993", "line2": "2 26766   8.6036  61.2568 0007698 218.3784 148.6829  0.99077787 43631"}}, "geometry": {"type": "Point", "coordinates": [98.48949189478955, 5.254357534198189]}}, {"type": "Feature", "properties": {"norad_id": 26900, "name": "INTELSAT 902 (IS-902)", "group": "intelsat", "lat": 2.2256651573435473, "lon": -129.3574237105524, "alt_km": 35769.12172660783, "timestamp": "2025-12-03T13:52:09.232944+00:00", "meta": {"OBJECT_NAME": "INTELSAT 902 (IS-902)", "OBJECT_ID": "2001-039A", "EPOCH": "2025-12-01T16:59:59.311968", "MEAN_MOTION": 1.00270327, "ECCENTRICITY": 0.00043097, "INCLINATION": 5.6187, "RA_OF_ASC_NODE": 74.2002, "ARG_OF_PERICENTER": 175.119, "MEAN_ANOMALY": 26.3816, "EPHEMERIS_TYPE": 0, "CLASSIFICATION_TYPE": "U", "NORAD_CAT_ID": 26900, "ELEMENT_SET_NO": 999, "REV_AT_EPOCH": 8871, "BSTAR": 0, "MEAN_MOTION_DOT": -2.63e-06, "MEAN_MOTION_DDOT": 0}, "tle": {"line1": "1 26900U 01039A   25335.70832537 -.00000263  00000+0  00000+0 0  9993", "line2": "2 26900   5.6187  74.2002 0004309 175.1190  26.3816  1.00270327 88713"}}, "geometry": {"type": "Point", "coordinates": [-129.3574237105524, 2.2256651573435473]}}, {"type": "Feature", "properties": {"norad_id": 27380, "name": "INTELSAT 904 (IS-904)", "group": "intelsat", "lat": 0.2374625861615598, "lon": -110.8005716599108, "alt_km": 35780.61178208374, "timestamp": "2025-12-03T13:52:09.232960+00:00", "meta": {"OBJECT_NAME": "INTELSAT 904 (IS-904)", "OBJECT_ID": "2002-007A", "EPOCH": "2025-12-03T03:19:57.879840", "MEAN_MOTION": 1.00269372, "ECCENTRICITY": 0.00015814, "INCLINATION": 6.4293, "RA_OF_ASC_NODE": 71.5412, "ARG_OF_PERICENTER": 200.7188, "MEAN_ANOMALY": 178.4698, "EPHEMERIS_TYPE": 0, "CLASSIFICATION_TYPE": "U", "NORAD_CAT_ID": 27380, "ELEMENT_SET_NO": 999, "REV_AT_EPOCH": 4980, "BSTAR": 0, "MEAN_MOTION_DOT": -2.1e-06, "MEAN_MOTION_DDOT": 0}, "tle": {"line1": "1 27380U 02007A   25337.13886435 -.00000210  00000+0  00000+0 0  9999", "line2": "2 27380   6.4293  71.5412 0001581 200.7188 178.4698  1.00269372 49801"}}, "geometry": {"type": "Point", "coordinates": [-110.8005716599108, 0.2374625861615598]}}, {"type": "Feature", "properties": {"norad_id": 27426, "name": "DIRECTV 5 (TEMPO 1)", "group": "intelsat", "lat": 4.3615865050072635, "lon": 170.52723340009217, "alt_km": 35787.44926798348, "timestamp": "2025-12-03T13:52:09.232974+00:00", "meta": {"OBJECT_NAME": "DIRECTV 5 (TEMPO 1)", "OBJECT_ID": "2002-023A", "EPOCH": "2025-12-03T07:31:02.618400", "MEAN_MOTION": 1.00271174, "ECCENTRICITY": 0.00037716, "INCLINATION": 4.3763, "RA_OF_ASC_NODE": 77.7633, "ARG_OF_PERICENTER": 189.2865, "MEAN_ANOMALY": 167.9916, "EPHEMERIS_TYPE": 0, "CLASSIFICATION_TYPE": "U", "NORAD_CAT_ID": 27426, "ELEMENT_SET_NO": 999, "REV_AT_EPOCH": 8615, "BSTAR": 0, "MEAN_MOTION_DOT": -4e-07, "MEAN_MOTION_DDOT": 0}, "tle": {"line1": "1 27426U 02023A   25337.31322475 -.00000040  00000+0  00000+0 0  9998", "line2": "2 27426   4.3763  77.7633 0003771 189.2865 167.9916  1.00271174 86158"}}, "geometry": {"type": "Point", "coordinates": [170.52723340009217, 4.3615865050072635]}}, {"type": "Feature", "properties": {"norad_id": 27438, "name": "INTELSAT 905 (IS-905)", "group": "intelsat", "lat": 5.933000110950649, "lon": 143.36618895723294, "alt_km": 35790.519842935595, "timestamp": "2025-12-03T13:52:09.232987+00:00", "meta": {"OBJECT_NAME": "INTELSAT 905 (IS-905)", "OBJECT_ID": "2002-027A", "EPOCH": "2025-12-02T09:56:38.679648", "MEAN_MOTION": 1.00272936, "ECCENTRICITY": 0.00030691, "INCLINATION": 6.2577, "RA_OF_ASC_NODE": 72.1733, "ARG_OF_PERICENTER": 187.1236, "MEAN_ANOMALY": 184.1903, "EPHEMERIS_TYPE": 0, "CLASSIFICATION_TYPE": "U", "NORAD_CAT_ID": 27438, "ELEMENT_SET_NO": 999, "REV_AT_EPOCH": 4939, "BSTAR": 0, "MEAN_MOTION_DOT": 1.12e-06, "MEAN_MOTION_DDOT": 0}, "tle": {"line1": "1 27438U 02027A   25336.41433657  .00000112  00000+0  00000+0 0  9999", "line2": "2 27438   6.2577  72.1733 0003069 187.1236 184.1903  1.00272936 49393"}}, "geometry": {"type": "Point", "coordinates": [143.36618895723294, 5.933000110950649]}}, {"type": "Feature", "properties": {"norad_id": 27445, "name": "GALAXY 3C (G-3C)", "group": "intelsat", "lat": 3.108337941729722, "lon": -174.1510144681708, "alt_km": 35780.76604185902, "timestamp": "2025-12-03T13:52:09.233000+00:00", "meta": {"OBJECT_NAME": "GALAXY 3C (G-3C)", "OBJECT_ID": "2002-030A", "EPOCH": "2025-12-02T21:53:42.294048", "MEAN_MOTION": 1.00270323, "ECCENTRICITY": 0.00012829, "INCLINATION": 3.2379, "RA_OF_ASC_NODE": 80.605, "ARG_OF_PERICENTER": 98.4026, "MEAN_ANOMALY": 126.5707, "EPHEMERIS_TYPE": 0, "CLASSIFICATION_TYPE": "U", "NORAD_CAT_ID": 27445, "ELEMENT_SET_NO": 999, "REV_AT_EPOCH": 4452, "BSTAR": 0, "MEAN_MOTION_DOT": -1.34e-06, "MEAN_MOTION_DDOT": 0}, "tle": {"line1": "1 27445U 02030A   25336.91229507 -.00000134  00000+0  00000+0 0  9998", "line2": "2 27445   3.2379  80.6050 0001282  98.4026 126.5707  1.00270323 44520"}}, "geometry": {"type": "Point", "coordinates": [-174.1510144681708, 3.108337941729722]}}, {"type": "Feature", "properties": {"norad_id": 27513, "name": "INTELSAT 906 (IS-906)", "group": "intelsat", "lat": -5.298728730855337, "lon": -15.107401399568984, "alt_km": 35780.817495194446, "timestamp": "2025-12-03T13:52:09.233012+00:00", "meta": {"OBJECT_NAME": "INTELSAT 906 (IS-906)", "OBJECT_ID": "2002-041A", "EPOCH": "2025-12-03T05:29:56.806080", "MEAN_MOTION": 1.00273105, "ECCENTRICITY": 0.00061177, "INCLINATION": 5.3049, "RA_OF_ASC_NODE": 75.3442, "ARG_OF_PERICENTER": 192.1114, "MEAN_ANOMALY": 311.4883, "EPHEMERIS_TYPE": 0, "CLASSIFICATION_TYPE": "U", "NORAD_CAT_ID": 27513, "ELEMENT_SET_NO": 999, "REV_AT_EPOCH": 8506, "BSTAR": 0, "MEAN_MOTION_DOT": 2.9e-07, "MEAN_MOTION_DDOT": 0}, "tle": {"line1": "1 27513U 02041A   25337.22912970  .00000029  00000+0  00000+0 0  9996", "line2": "2 27513   5.3049  75.3442 0006117 192.1114 311.4883  1.00273105 85066"}}, "geometry": {"type": "Point", "coordinates": [-15.107401399568984, -5.298728730855337]}}, {"type": "Feature", "properties": {"norad_id": 27954, "name": "GALAXY 13 (HORIZONS-1)", "group": "intelsat", "lat": 0.6382921106223257, "lon": 130.6497345555493, "alt_km": 35789.711016148314, "timestamp": "2025-12-03T13:52:09.233024+00:00", "meta": {"OBJECT_NAME": "GALAXY 13 (HORIZONS-1)", "OBJECT_ID": "2003-044A", "EPOCH": "2025-12-03T06:11:37.811328", "MEAN_MOTION": 1.00272458, "ECCENTRICITY": 0.00020776, "INCLINATION": 0.9111, "RA_OF_ASC_NODE": 86.5879, "ARG_OF_PERICENTER": 160.6153, "MEAN_ANOMALY": 128.0482, "EPHEMERIS_TYPE": 0, "CLASSIFICATION_TYPE": "U", "NORAD_CAT_ID": 27954, "ELEMENT_SET_NO": 999, "REV_AT_EPOCH": 4460, "BSTAR": 0, "MEAN_MOTION_DOT": 1.51e-06, "MEAN_MOTION_DDOT": 0}, "tle": {"line1": "1 27954U 03044A   25337.25807652  .00000151  00000+0  00000+0 0  9998", "line2": "2 27954   0.9111  86.5879 0002077 160.6153 128.0482  1.00272458 44600"}}, "geometry": {"type": "Point", "coordinates": [130.6497345555493, 0.6382921106223257]}}, {"type": "Feature", "properties": {"norad_id": 28358, "name": "INTELSAT 10-02", "group": "intelsat", "lat": -0.02470778825794213, "lon": -80.31339172539475, "alt_km": 35781.47425139911, "timestamp": "2025-12-03T13:52:09.233036+00:00", "meta": {"OBJECT_NAME": "INTELSAT 10-02", "OBJECT_ID": "2004-022A", "EPOCH": "2025-12-02T21:31:38.613216", "MEAN_MOTION": 1.00271045, "ECCENTRICITY": 0.00011344, "INCLINATION": 0.0398, "RA_OF_ASC_NODE": 86.235, "ARG_OF_PERICENTER": 192.2439, "MEAN_ANOMALY": 115.4352, "EPHEMERIS_TYPE": 0, "CLASSIFICATION_TYPE": "U", "NORAD_CAT_ID": 28358, "ELEMENT_SET_NO": 999, "REV_AT_EPOCH": 7858, "BSTAR": 0, "MEAN_MOTION_DOT": 9e-08, "MEAN_MOTION_DDOT": 0}, "tle": {"line1": "1 28358U 04022A   25336.89697469  .00000009  00000+0  00000+0 0  9998", "line2": "2 28358   0.0398  86.2350 0001134 192.2439 115.4352  1.00271045 78580"}}, "geometry": {"type": "Point", "coordinates": [-80.31339172539475, -0.02470778825794213]}}, {"type": "Feature", "properties": {"norad_id": 28626, "name": "XM-3 (RHYTHM)", "group": "intelsat", "lat": 0.019086786489351637, "lon": 78.4634410514775, "alt_km": 36159.42066821787, "timestamp": "2025-12-03T13:52:09.233048+00:00", "meta": {"OBJECT_NAME": "XM-3 (RHYTHM)", "OBJECT_ID": "2005-008A", "EPOCH": "2025-12-02T19:08:10.315968", "MEAN_MOTION": 0.98955046, "ECCENTRICITY": 8.644e-05, "INCLINATION": 0.1467, "RA_OF_ASC_NODE": 80.743, "ARG_OF_PERICENTER": 265.9206, "MEAN_ANOMALY": 173.7506, "EPHEMERIS_TYPE": 0, "CLASSIFICATION_TYPE": "U", "NORAD_CAT_ID": 28626, "ELEMENT_SET_NO": 999, "REV_AT_EPOCH": 4065, "BSTAR": 0, "MEAN_MOTION_DOT": -2.32e-06, "MEAN_MOTION_DDOT": 0}, "tle": {"line1": "1 28626U 05008A   25336.79734162 -.00000232  00000+0  00000+0 0  9991", "line2": "2 28626   0.1467  80.7430 0000864 265.9206 173.7506  0.98955046 40654"}}, "geometry": {"type": "Point", "coordinates": [78.4634410514775, 0.019086786489351637]}}]}